QIANFAN-33              
1 61566U 24185Q   25365.24654067  .00000644  00000+0  45596-3 0  9994
2 61566  88.9791  76.7488 0005087 263.6827  96.3771 13.96568838 71741
QIANFAN-34              
1 61567U 24185R   25365.27876690  .00000761  00000+0  48785-3 0  9999
2 61567  88.9768  76.2841 0003315 270.9872  89.0928 14.02324992 71952
QIANFAN-35              
1 61568U 24185S   25365.26694686  .00001390  00000+0  55468-3 0  9997
2 61568  88.9792  74.7087 0005501 206.2471 153.8445 14.28004277 72821
QIANFAN-36              
1 61569U 24185T   25365.26860134  .00000204  00000+0  27663-3 0  9990
2 61569  88.9777  79.1186 0005511   8.2204 351.9039 13.55594973 70430
QIANFAN-37              
1 62238U 24232B   25365.21233728  .00000119  00000+0  16615-3 0  9995
2 62238  89.0003  39.4643 0002463  84.8507 275.2925 13.50981183101664
QIANFAN-38              
1 62239U 24232C   25365.23702207  .00000113  00000+0  15670-3 0  9995
2 62239  89.0010  39.3787 0016043 136.9789 223.2620 13.50978902101728
QIANFAN-39              
1 62240U 24232D   25365.23736690  .00000515  00000+0  21206-3 0  9998
2 62240  89.0001  35.1928 0016877  26.0082 334.1956 14.25405300104021
QIANFAN-40              
1 62241U 24232E   25365.26993972  .00000119  00000+0  16605-3 0  9997
2 62241  89.0037  38.9651 0014885 143.7701 216.4462 13.50978960102090
